CCSDS_OEM_VERS = 1.0
CREATION_DATE  = 2017-05-11T12:07:34
ORIGINATOR     = GMAT USER

META_START
OBJECT_NAME          = MOPSSat_alt_35785_km_RAAN_270_160
OBJECT_ID            = SatId
CENTER_NAME          = Earth
REF_FRAME            = EME2000
TIME_SYSTEM          = UTC
START_TIME           = 2017-01-01T00:00:00.000
USEABLE_START_TIME   = 2017-01-01T00:00:00.000
USEABLE_STOP_TIME    = 2017-01-02T00:00:00.000
STOP_TIME            = 2017-01-02T00:00:00.000
INTERPOLATION        = Lagrange
INTERPOLATION_DEGREE = 7 
META_STOP


                                                                                   

2017-01-01T04:35:00.000   3.291176227771980e+04   3.443072705565962e+04  -1.474804852718284e-01  -4.730441758914387e-01   2.656329321901003e+00  -4.536957521595188e-06
2017-01-01T04:35:10.000   3.290702576766832e+04   3.445728399849335e+04  -1.475257555308281e-01  -4.742576119760948e-01   2.655059347491600e+00  -4.517090724290475e-06
2017-01-01T04:35:20.000   3.290227713016384e+04   3.448382824332493e+04  -1.475708270129698e-01  -4.754696572989042e-01   2.653789667982060e+00  -4.497202060566507e-06
2017-01-01T04:35:30.000   3.289751637910320e+04   3.451035979310363e+04  -1.476156994996387e-01  -4.766803139685615e-01   2.652520283490614e+00  -4.477291541145074e-06
2017-01-01T04:35:40.000   3.289274352836432e+04   3.453687865076579e+04  -1.476603727722986e-01  -4.778895840888179e-01   2.651251194134745e+00  -4.457359176756259e-06
2017-01-01T04:35:50.000   3.288795859185372e+04   3.456338481898121e+04  -1.477048466120880e-01  -4.790974697470468e-01   2.649982400043352e+00  -4.437404978343214e-06
2017-01-01T04:36:00.000   3.288316158344327e+04   3.458987830049531e+04  -1.477491208003738e-01  -4.803039730297412e-01   2.648713901340363e+00  -4.417428956791334e-06
2017-01-01T04:36:10.000   3.287835251699497e+04   3.461635909799394e+04  -1.477931951185306e-01  -4.815090960164003e-01   2.647445698151198e+00  -4.397431123033805e-06
2017-01-01T04:36:20.000   3.287353140625248e+04   3.464282721470124e+04  -1.478370693489353e-01  -4.827128408067416e-01   2.646177790574168e+00  -4.377411487592885e-06
2017-01-01T04:36:30.000   3.286869826494958e+04   3.466928265378169e+04  -1.478807432739706e-01  -4.839152094934963e-01   2.644910178709090e+00  -4.357370061037943e-06
2017-01-01T04:36:40.000   3.286385310678593e+04   3.469572541847555e+04  -1.479242166762532e-01  -4.851162041685962e-01   2.643642862650826e+00  -4.337306853881722e-06
2017-01-01T04:36:50.000   3.285899594548812e+04   3.472215551175469e+04  -1.479674893380437e-01  -4.863158269074407e-01   2.642375842505742e+00  -4.317221876841754e-06
2017-01-01T04:37:00.000   3.285412679476494e+04   3.474857293657849e+04  -1.480105610416931e-01  -4.875140797806483e-01   2.641109118379482e+00  -4.297115140646269e-06
2017-01-01T04:37:10.000   3.284924566830665e+04   3.477497769589323e+04  -1.480534315696310e-01  -4.887109648539930e-01   2.639842690377001e+00  -4.276986656034088e-06
2017-01-01T04:37:20.000   3.284435257983366e+04   3.480136979237983e+04  -1.480961007039809e-01  -4.899064841770850e-01   2.638576558614695e+00  -4.256836433949214e-06
2017-01-01T04:37:30.000   3.283944754303173e+04   3.482774922879421e+04  -1.481385682270895e-01  -4.911006397987112e-01   2.637310723204053e+00  -4.236664485278925e-06
2017-01-01T04:37:40.000   3.283453057157740e+04   3.485411600783302e+04  -1.481808339213152e-01  -4.922934337607826e-01   2.636045184258112e+00  -4.216470820957360e-06
2017-01-01T04:37:50.000   3.282960167902706e+04   3.488047013272862e+04  -1.482228975699822e-01  -4.934848681252701e-01   2.634779941862903e+00  -4.196255451508113e-06
2017-01-01T04:38:00.000   3.282466087892788e+04   3.490681160665397e+04  -1.482647589564243e-01  -4.946749449472746e-01   2.633514996106018e+00  -4.176018387502087e-06
2017-01-01T04:38:10.000   3.281970818479289e+04   3.493314043285731e+04  -1.483064178642048e-01  -4.958636662811544e-01   2.632250347070155e+00  -4.155759639453287e-06
2017-01-01T04:38:20.000   3.281474361016362e+04   3.495945661431952e+04  -1.483478740765490e-01  -4.970510341649506e-01   2.630985994849543e+00  -4.135479218084820e-06
2017-01-01T04:38:30.000   3.280976716856418e+04   3.498576015400893e+04  -1.483891273767732e-01  -4.982370506320193e-01   2.629721939537748e+00  -4.115177134129846e-06
2017-01-01T04:38:40.000   3.280477887350057e+04   3.501205105488075e+04  -1.484301775482739e-01  -4.994217177109676e-01   2.628458181227692e+00  -4.094853398333437e-06
2017-01-01T04:38:50.000   3.279977873851043e+04   3.503832931962583e+04  -1.484710243741594e-01  -5.006050374144503e-01   2.627194720023774e+00  -4.074508021640459e-06
2017-01-01T04:39:00.000   3.279476677709677e+04   3.506459495100956e+04  -1.485116676377569e-01  -5.017870117543527e-01   2.625931556025544e+00  -4.054141014940289e-06
2017-01-01T04:39:10.000   3.278974300275453e+04   3.509084795173573e+04  -1.485521071224053e-01  -5.029676427356885e-01   2.624668689334270e+00  -4.033752389169226e-06
2017-01-01T04:39:20.000   3.278470742885526e+04   3.511708832504869e+04  -1.485923426123830e-01  -5.041469323836997e-01   2.623406120023968e+00  -4.013342154854508e-06
2017-01-01T04:39:30.000   3.277966006876266e+04   3.514331607412949e+04  -1.486323738919766e-01  -5.053248827166930e-01   2.622143848170458e+00  -3.992910322571284e-06
2017-01-01T04:39:40.000   3.277460093580286e+04   3.516953120225187e+04  -1.486722007457230e-01  -5.065014957530797e-01   2.620881873843871e+00  -3.972456902826097e-06
2017-01-01T04:39:50.000   3.276953004334405e+04   3.519573371236217e+04  -1.487118229577503e-01  -5.076767734924448e-01   2.619620197128837e+00  -3.951981906369159e-06
2017-01-01T04:40:00.000   3.276444740473097e+04   3.522192360742623e+04  -1.487512403123253e-01  -5.088507179312095e-01   2.618358818107828e+00  -3.931485343939119e-06
2017-01-01T04:40:10.000   3.275935303329969e+04   3.524810089035182e+04  -1.487904525937308e-01  -5.100233310591403e-01   2.617097736864886e+00  -3.910967226318248e-06
2017-01-01T04:40:20.000   3.275424694237428e+04   3.527426556401064e+04  -1.488294595863120e-01  -5.111946148603986e-01   2.615836953484595e+00  -3.890427564329478e-06
2017-01-01T04:40:30.000   3.274912914526123e+04   3.530041763126338e+04  -1.488682610745030e-01  -5.123645713146340e-01   2.614576468050857e+00  -3.869866368802847e-06
2017-01-01T04:40:40.000   3.274399965524761e+04   3.532655709496957e+04  -1.489068568428428e-01  -5.135332023974294e-01   2.613316280646429e+00  -3.849283650572531e-06
2017-01-01T04:40:50.000   3.273885848558321e+04   3.535268395808109e+04  -1.489452466761199e-01  -5.147005100845303e-01   2.612056391348420e+00  -3.828679420392287e-06
2017-01-01T04:41:00.000   3.273370564949228e+04   3.537879822357963e+04  -1.489834303592719e-01  -5.158664963490149e-01   2.610796800231315e+00  -3.808053688995245e-06
2017-01-01T04:41:10.000   3.272854116017378e+04   3.540489989447660e+04  -1.490214076773871e-01  -5.170311631613154e-01   2.609537507366969e+00  -3.787406467089935e-06
2017-01-01T04:41:20.000   3.272336503078850e+04   3.543098897387492e+04  -1.490591784157873e-01  -5.181945124919527e-01   2.608278512821634e+00  -3.766737765321591e-06
2017-01-01T04:41:30.000   3.271817727447804e+04   3.545706546487607e+04  -1.490967423598981e-01  -5.193565463074190e-01   2.607019816660447e+00  -3.746047594335270e-06
2017-01-01T04:41:40.000   3.271297790436675e+04   3.548312937057071e+04  -1.491340992952364e-01  -5.205172665697785e-01   2.605761418947897e+00  -3.725335964787508e-06
2017-01-01T04:41:50.000   3.270776693356623e+04   3.550918069401192e+04  -1.491712490073608e-01  -5.216766752354384e-01   2.604503319749095e+00  -3.704602887354770e-06
2017-01-01T04:42:00.000   3.270254437518039e+04   3.553521943819538e+04  -1.492081912818571e-01  -5.228347742543297e-01   2.603245519130769e+00  -3.683848372762361e-06
2017-01-01T04:42:10.000   3.269731024228980e+04   3.556124560613548e+04  -1.492449259044409e-01  -5.239915655732834e-01   2.601988017157575e+00  -3.663072431719126e-06
2017-01-01T04:42:20.000   3.269206454802184e+04   3.558725920052364e+04  -1.492814526604938e-01  -5.251470511209245e-01   2.600730813908644e+00  -3.642275075202765e-06
2017-01-01T04:42:30.000   3.268680730546601e+04   3.561326022414266e+04  -1.493177713356299e-01  -5.263012328260267e-01   2.599473909457539e+00  -3.621456314116824e-06
2017-01-01T04:42:40.000   3.268153852770538e+04   3.563924867971246e+04  -1.493538817154826e-01  -5.274541126106849e-01   2.598217303879718e+00  -3.600616159417472e-06
2017-01-01T04:42:50.000   3.267625822769548e+04   3.566522457048800e+04  -1.493897835865382e-01  -5.286056924168570e-01   2.596960997223630e+00  -3.579754621627288e-06
2017-01-01T04:43:00.000   3.267096641838510e+04   3.569118789966281e+04  -1.494254767353025e-01  -5.297559741798955e-01   2.595704989539559e+00  -3.558871711319649e-06
2017-01-01T04:43:10.000   3.266566311268916e+04   3.571713867050427e+04  -1.494609609484938e-01  -5.309049598345806e-01   2.594449280873091e+00  -3.537967439008837e-06
2017-01-01T04:43:20.000   3.266034832355577e+04   3.574307688601578e+04  -1.494962360125540e-01  -5.320526513000695e-01   2.593193871281425e+00  -3.517041815422183e-06
2017-01-01T04:43:30.000   3.265502206391705e+04   3.576900254918813e+04  -1.495313017140200e-01  -5.331990504911353e-01   2.591938760821254e+00  -3.496094851298027e-06
2017-01-01T04:43:40.000   3.264968434668843e+04   3.579491566299877e+04  -1.495661578395116e-01  -5.343441593181066e-01   2.590683949548800e+00  -3.475126557385583e-06
2017-01-01T04:43:50.000   3.264433518482151e+04   3.582081623016421e+04  -1.496008041754243e-01  -5.354879796760358e-01   2.589429437531829e+00  -3.454136944647649e-06
2017-01-01T04:44:00.000   3.263897459123361e+04   3.584670425347416e+04  -1.496352405083547e-01  -5.366305134593782e-01   2.588175224833456e+00  -3.433126023987772e-06
